{"type": "FeatureCollection", "features": [ {"type": "Feature", "properties": {"norad_id": 28649, "name": "IRS-P5 (CARTOSAT-1)", "group": "resource", "lat": -21.70805058889352, "lon": -155.3928888193913, "alt_km": 602.0899699689835, "timestamp": "2025-12-27T21:25:02.156828+00:00", "meta": {"OBJECT_NAME": "IRS-P5 (CARTOSAT-1)", "OBJECT_ID": "2005-017A", "EPOCH": "2025-12-27T01:10:47.096544", "MEAN_MOTION": 14.90453087, "ECCENTRICITY": 4.68e-05, "INCLINATION": 97.5482, "RA_OF_ASC_NODE": 26.8273, "ARG_OF_PERICENTER": 77.8552, "MEAN_ANOMALY": 282.2719, "EPHEMERIS_TYPE": 0, "CLASSIFICATION_TYPE": "U", "NORAD_CAT_ID": 28649, "ELEMENT_SET_NO": 999, "REV_AT_EPOCH": 11817, "BSTAR": 0.00019183665, "MEAN_MOTION_DOT": 1.818e-05, "MEAN_MOTION_DDOT": 0}, "tle": {"line1": "1 28649U 05017A   25361.04915621  .00001818  00000+0  19184-3 0  9990", "line2": "2 28649  97.5482  26.8273 0000468  77.8552 282.2719 14.90453087118176"}}, "geometry": {"type": "Point", "coordinates": [-155.3928888193913, -21.70805058889352]}}, {"type": "Feature", "properties": {"norad_id": 28893, "name": "SINAH 1", "group": "resource", "lat": -14.902321246119808, "lon": -51.72489838672486, "alt_km": 687.3856000659971, "timestamp": "2025-12-27T21:25:02.156839+00:00", "meta": {"OBJECT_NAME": "SINAH 1", "OBJECT_ID": "2005-043D", "EPOCH": "2025-12-27T10:41:20.812128", "MEAN_MOTION": 14.63978185, "ECCENTRICITY": 0.001573, "INCLINATION": 98.261, "RA_OF_ASC_NODE": 130.0428, "ARG_OF_PERICENTER": 94.1832, "MEAN_ANOMALY": 266.1168, "EPHEMERIS_TYPE": 0, "CLASSIFICATION_TYPE": "U", "NORAD_CAT_ID": 28893, "ELEMENT_SET_NO": 999, "REV_AT_EPOCH": 7539, "BSTAR": 0.00011514, "MEAN_MOTION_DOT": 5.55e-06, "MEAN_MOTION_DDOT": 0}, "tle": {"line1": "1 28893U 05043D   25361.44537977  .00000555  00000+0  11514-3 0  9994", "line2": "2 28893  98.2610 130.0428 0015730  94.1832 266.1168 14.63978185 75395"}}, "geometry": {"type": "Point", "coordinates": [-51.72489838672486, -14.902321246119808]}}, {"type": "Feature", "properties": {"norad_id": 29079, "name": "EROS B", "group": "resource", "lat": -75.29632024067485, "lon": -90.1975693407278, "alt_km": 354.1892249864786, "timestamp": "2025-12-27T21:25:02.156851+00:00", "meta": {"OBJECT_NAME": "EROS B", "OBJECT_ID": "2006-014A", "EPOCH": "2025-12-27T12:41:42.881856", "MEAN_MOTION": 15.7336517, "ECCENTRICITY": 0.0005029, "INCLINATION": 97.3441, "RA_OF_ASC_NODE": 118.859, "ARG_OF_PERICENTER": 313.2031, "MEAN_ANOMALY": 46.8812, "EPHEMERIS_TYPE": 0, "CLASSIFICATION_TYPE": "U", "NORAD_CAT_ID": 29079, "ELEMENT_SET_NO": 999, "REV_AT_EPOCH": 9312, "BSTAR": 0.0015559, "MEAN_MOTION_DOT": 0.00220224, "MEAN_MOTION_DDOT": 0}, "tle": {"line1": "1 29079U 06014A   25361.52896854  .00220224  00000+0  15559-2 0  9990", "line2": "2 29079  97.3441 118.8590 0005029 313.2031  46.8812 15.73365170 93120"}}, "geometry": {"type": "Point", "coordinates": [-90.1975693407278, -75.29632024067485]}}, {"type": "Feature", "properties": {"norad_id": 29228, "name": "RESURS-DK 1", "group": "resource", "lat": -64.04002970169572, "lon": -68.66476384614535, "alt_km": 531.1560807303131, "timestamp": "2025-12-27T21:25:02.156862+00:00", "meta": {"OBJECT_NAME": "RESURS-DK 1", "OBJECT_ID": "2006-021A", "EPOCH": "2025-12-27T10:46:34.247136", "MEAN_MOTION": 15.12244542, "ECCENTRICITY": 0.0006986, "INCLINATION": 69.9337, "RA_OF_ASC_NODE": 63.822, "ARG_OF_PERICENTER": 245.9893, "MEAN_ANOMALY": 114.0542, "EPHEMERIS_TYPE": 0, "CLASSIFICATION_TYPE": "U", "NORAD_CAT_ID": 29228, "ELEMENT_SET_NO": 999, "REV_AT_EPOCH": 7660, "BSTAR": 0.0001939, "MEAN_MOTION_DOT": 3.254e-05, "MEAN_MOTION_DDOT": 0}, "tle": {"line1": "1 29228U 06021A   25361.44900749  .00003254  00000+0  19390-3 0  9994", "line2": "2 29228  69.9337  63.8220 0006986 245.9893 114.0542 15.12244542 76608"}}, "geometry": {"type": "Point", "coordinates": [-68.66476384614535, -64.04002970169572]}}, {"type": "Feature", "properties": {"norad_id": 29268, "name": "ARIRANG-2 (KOMPSAT-2)", "group": "resource", "lat": 50.828136093996584, "lon": 19.34518448091578, "alt_km": 679.7464376471553, "timestamp": "2025-12-27T21:25:02.156873+00:00", "meta": {"OBJECT_NAME": "ARIRANG-2 (KOMPSAT-2)", "OBJECT_ID": "2006-031A", "EPOCH": "2025-12-27T13:00:57.970368", "MEAN_MOTION": 14.64507274, "ECCENTRICITY": 0.0013159, "INCLINATION": 97.8262, "RA_OF_ASC_NODE": 189.2937, "ARG_OF_PERICENTER": 257.9295, "MEAN_ANOMALY": 186.2005, "EPHEMERIS_TYPE": 0, "CLASSIFICATION_TYPE": "U", "NORAD_CAT_ID": 29268, "ELEMENT_SET_NO": 999, "REV_AT_EPOCH": 3635, "BSTAR": 0.00010005, "MEAN_MOTION_DOT": 4.86e-06, "MEAN_MOTION_DDOT": 0}, "tle": {"line1": "1 29268U 06031A   25361.54233762  .00000486  00000+0  10005-3 0  9992", "line2": "2 29268  97.8262 189.2937 0013159 257.9295 186.2005 14.64507274 36359"}}, "geometry": {"type": "Point", "coordinates": [19.34518448091578, 50.828136093996584]}}, {"type": "Feature", "properties": {"norad_id": 29709, "name": "LAPAN-TUBSAT", "group": "resource", "lat": 41.92103229368769, "lon": 179.73310023624734, "alt_km": 610.9280881601544, "timestamp": "2025-12-27T21:25:02.156885+00:00", "meta": {"OBJECT_NAME": "LAPAN-TUBSAT", "OBJECT_ID": "2007-001A", "EPOCH": "2025-12-27T12:43:10.513056", "MEAN_MOTION": 14.85693206, "ECCENTRICITY": 0.0013026, "INCLINATION": 98.1268, "RA_OF_ASC_NODE": 351.9914, "ARG_OF_PERICENTER": 30.0127, "MEAN_ANOMALY": 330.1832, "EPHEMERIS_TYPE": 0, "CLASSIFICATION_TYPE": "U", "NORAD_CAT_ID": 29709, "ELEMENT_SET_NO": 999, "REV_AT_EPOCH": 2566, "BSTAR": 0.00013174, "MEAN_MOTION_DOT": 1.087e-05, "MEAN_MOTION_DDOT": 0}, "tle": {"line1": "1 29709U 07001A   25361.52998279  .00001087  00000+0  13174-3 0  9997", "line2": "2 29709  98.1268 351.9914 0013026  30.0127 330.1832 14.85693206 25663"}}, "geometry": {"type": "Point", "coordinates": [179.73310023624734, 41.92103229368769]}}, {"type": "Feature", "properties": {"norad_id": 31113, "name": "HAIYANG-1B", "group": "resource", "lat": -75.33145613966083, "lon": 19.59710747764136, "alt_km": 792.8431671522521, "timestamp": "2025-12-27T21:25:02.156896+00:00", "meta": {"OBJECT_NAME": "HAIYANG-1B", "OBJECT_ID": "2007-010A", "EPOCH": "2025-12-27T11:42:40.078368", "MEAN_MOTION": 14.30970013, "ECCENTRICITY": 0.0013458, "INCLINATION": 98.3331, "RA_OF_ASC_NODE": 345.1578, "ARG_OF_PERICENTER": 355.5562, "MEAN_ANOMALY": 4.55, "EPHEMERIS_TYPE": 0, "CLASSIFICATION_TYPE": "U", "NORAD_CAT_ID": 31113, "ELEMENT_SET_NO": 999, "REV_AT_EPOCH": 97607, "BSTAR": 7.4687e-05, "MEAN_MOTION_DOT": 1.55e-06, "MEAN_MOTION_DDOT": 0}, "tle": {"line1": "1 31113U 07010A   25361.48796387  .00000155  00000+0  74687-4 0  9992", "line2": "2 31113  98.3331 345.1578 0013458 355.5562   4.5500 14.30970013976074"}}, "geometry": {"type": "Point", "coordinates": [19.59710747764136, -75.33145613966083]}}, {"type": "Feature", "properties": {"norad_id": 31598, "name": "COSMO-SKYMED 1", "group": "resource", "lat": -72.77161453567598, "lon": -146.06609988866336, "alt_km": 587.6200080349281, "timestamp": "2025-12-27T21:25:02.156907+00:00", "meta": {"OBJECT_NAME": "COSMO-SKYMED 1", "OBJECT_ID": "2007-023A", "EPOCH": "2025-12-27T12:07:05.128608", "MEAN_MOTION": 14.95874437, "ECCENTRICITY": 0.0001079, "INCLINATION": 97.8838, "RA_OF_ASC_NODE": 187.0018, "ARG_OF_PERICENTER": 78.1288, "MEAN_ANOMALY": 282.0053, "EPHEMERIS_TYPE": 0, "CLASSIFICATION_TYPE": "U", "NORAD_CAT_ID": 31598, "ELEMENT_SET_NO": 999, "REV_AT_EPOCH": 411, "BSTAR": 0.00035237, "MEAN_MOTION_DOT": 3.881e-05, "MEAN_MOTION_DDOT": 0}, "tle": {"line1": "1 31598U 07023A   25361.50492047  .00003881  00000+0  35237-3 0  9998", "line2": "2 31598  97.8838 187.0018 0001079  78.1288 282.0053 14.95874437  4115"}}, "geometry": {"type": "Point", "coordinates": [-146.06609988866336, -72.77161453567598]}}, {"type": "Feature", "properties": {"norad_id": 31698, "name": "TERRASAR-X", "group": "resource", "lat": 47.8159524930988, "lon": -164.6520471283553, "alt_km": 503.44590101975973, "timestamp": "2025-12-27T21:25:02.156945+00:00", "meta": {"OBJECT_NAME": "TERRASAR-X", "OBJECT_ID": "2007-026A", "EPOCH": "2025-12-26T13:13:25.268160", "MEAN_MOTION": 15.19159007, "ECCENTRICITY": 0.0001831, "INCLINATION": 97.4449, "RA_OF_ASC_NODE": 5.7296, "ARG_OF_PERICENTER": 80.7089, "MEAN_ANOMALY": 279.4352, "EPHEMERIS_TYPE": 0, "CLASSIFICATION_TYPE": "U", "NORAD_CAT_ID": 31698, "ELEMENT_SET_NO": 999, "REV_AT_EPOCH": 2701, "BSTAR": 7.4512e-05, "MEAN_MOTION_DOT": 1.498e-05, "MEAN_MOTION_DDOT": 0}, "tle": {"line1": "1 31698U 07026A   25360.55098690  .00001498  00000+0  74512-4 0  9994", "line2": "2 31698  97.4449   5.7296 0001831  80.7089 279.4352 15.19159007 27010"}}, "geometry": {"type": "Point", "coordinates": [-164.6520471283553, 47.8159524930988]}}, {"type": "Feature", "properties": {"norad_id": 32060, "name": "WORLDVIEW-1 (WV-1)", "group": "resource", "lat": 53.03682688590468, "lon": 109.22909462462525, "alt_km": 488.1181967915818, "timestamp": "2025-12-27T21:25:02.156958+00:00", "meta": {"OBJECT_NAME": "WORLDVIEW-1 (WV-1)", "OBJECT_ID": "2007-041A", "EPOCH": "2025-12-27T07:00:01.279008", "MEAN_MOTION": 15.23997296, "ECCENTRICITY": 0.0003008, "INCLINATION": 97.3816, "RA_OF_ASC_NODE": 118.5576, "ARG_OF_PERICENTER": 346.3085, "MEAN_ANOMALY": 13.807, "EPHEMERIS_TYPE": 0, "CLASSIFICATION_TYPE": "U", "NORAD_CAT_ID": 32060, "ELEMENT_SET_NO": 999, "REV_AT_EPOCH": 1669, "BSTAR": 0.00039114, "MEAN_MOTION_DOT": 9.407e-05, "MEAN_MOTION_DDOT": 0}, "tle": {"line1": "1 32060U 07041A   25361.29168147  .00009407  00000+0  39114-3 0  9998", "line2": "2 32060  97.3816 118.5576 0003008 346.3085  13.8070 15.23997296 16694"}}, "geometry": {"type": "Point", "coordinates": [109.22909462462525, 53.03682688590468]}}]}